{
  "type": "FeatureCollection",
  "features": [
    {
      "type": "Feature",
      "properties": {
        "norad_id": 66440,
        "name": "STARLINK-35405",
        "group": "last-30-days",
        "lat": 23.67824653418502,
        "lon": 87.35594148719164,
        "alt_km": 440.77771821269744,
        "timestamp": "2025-12-10T16:57:10.414854+00:00",
        "meta_object_name": "STARLINK-35405",
        "meta_object_id": "2025-259U",
        "meta_epoch": "2025-12-10T12:00:02.998944",
        "meta_mean_motion": 15.40644999,
        "meta_eccentricity": 0.0001353,
        "meta_inclination": 43.0001,
        "meta_ra_of_asc_node": 60.473,
        "meta_arg_of_pericenter": 278.6059,
        "meta_mean_anomaly": 51.7623,
        "meta_ephemeris_type": 0,
        "meta_classification_type": "U",
        "meta_norad_cat_id": 66440,
        "meta_element_set_no": 999,
        "meta_rev_at_epoch": 592,
        "meta_bstar": 0.0017296,
        "meta_mean_motion_dot": 0.00072502,
        "meta_mean_motion_ddot": 0,
        "tle_line1": "1 66440U 25259U   25344.50003471  .00072502  00000+0  17296-2 0  9993",
        "tle_line2": "2 66440  43.0001  60.4730 0001353 278.6059  51.7623 15.40644999  5920"
      },
      "geometry": {
        "type": "Point",
        "coordinates": [
          87.35594148719164,
          23.67824653418502
        ]
      }
    },
    {
      "type": "Feature",
      "properties": {
        "norad_id": 66441,
        "name": "STARLINK-35426",
        "group": "last-30-days",
        "lat": 30.738086242047125,
        "lon": 98.90631059962074,
        "alt_km": 439.3793323854743,
        "timestamp": "2025-12-10T16:57:10.414865+00:00",
        "meta_object_name": "STARLINK-35426",
        "meta_object_id": "2025-259V",
        "meta_epoch": "2025-12-10T12:00:02.998944",
        "meta_mean_motion": 15.4091455,
        "meta_eccentricity": 9.79e-05,
        "meta_inclination": 43.0002,
        "meta_ra_of_asc_node": 60.4427,
        "meta_arg_of_pericenter": 285.6048,
        "meta_mean_anomaly": 57.1022,
        "meta_ephemeris_type": 0,
        "meta_classification_type": "U",
        "meta_norad_cat_id": 66441,
        "meta_element_set_no": 999,
        "meta_rev_at_epoch": 592,
        "meta_bstar": -0.0097554,
        "meta_mean_motion_dot": -0.00390405,
        "meta_mean_motion_ddot": 0,
        "tle_line1": "1 66441U 25259V   25344.50003471 -.00390405  00000+0 -97554-2 0  9996",
        "tle_line2": "2 66441  43.0002  60.4427 0000979 285.6048  57.1022 15.40914550  5920"
      },
      "geometry": {
        "type": "Point",
        "coordinates": [
          98.90631059962074,
          30.738086242047125
        ]
      }
    },
    {
      "type": "Feature",
      "properties": {
        "norad_id": 66442,
        "name": "STARLINK-34724",
        "group": "last-30-days",
        "lat": 36.43456270109161,
        "lon": 111.6133094116784,
        "alt_km": 435.672295889588,
        "timestamp": "2025-12-10T16:57:10.414876+00:00",
        "meta_object_name": "STARLINK-34724",
        "meta_object_id": "2025-259W",
        "meta_epoch": "2025-12-10T12:00:02.998944",
        "meta_mean_motion": 15.42703443,
        "meta_eccentricity": 0.0001196,
        "meta_inclination": 43.0002,
        "meta_ra_of_asc_node": 60.4162,
        "meta_arg_of_pericenter": 286.4133,
        "meta_mean_anomaly": 67.2712,
        "meta_ephemeris_type": 0,
        "meta_classification_type": "U",
        "meta_norad_cat_id": 66442,
        "meta_element_set_no": 999,
        "meta_rev_at_epoch": 592,
        "meta_bstar": -0.053466,
        "meta_mean_motion_dot": -0.02113165,
        "meta_mean_motion_ddot": 0,
        "tle_line1": "1 66442U 25259W   25344.50003471 -.02113165  00000+0 -53466-1 0  9998",
        "tle_line2": "2 66442  43.0002  60.4162 0001196 286.4133  67.2712 15.42703443  5920"
      },
      "geometry": {
        "type": "Point",
        "coordinates": [
          111.6133094116784,
          36.43456270109161
        ]
      }
    },
    {
      "type": "Feature",
      "properties": {
        "norad_id": 66443,
        "name": "STARLINK-35219",
        "group": "last-30-days",
        "lat": 40.200478210822766,
        "lon": 124.27413354319211,
        "alt_km": 431.5118697614025,
        "timestamp": "2025-12-10T16:57:10.414886+00:00",
        "meta_object_name": "STARLINK-35219",
        "meta_object_id": "2025-259X",
        "meta_epoch": "2025-12-10T12:00:02.998944",
        "meta_mean_motion": 15.43983344,
        "meta_eccentricity": 0.0001235,
        "meta_inclination": 43.0006,
        "meta_ra_of_asc_node": 60.3932,
        "meta_arg_of_pericenter": 267.0994,
        "meta_mean_anomaly": 96.2411,
        "meta_ephemeris_type": 0,
        "meta_classification_type": "U",
        "meta_norad_cat_id": 66443,
        "meta_element_set_no": 999,
        "meta_rev_at_epoch": 581,
        "meta_bstar": -0.049226,
        "meta_mean_motion_dot": -0.02041493,
        "meta_mean_motion_ddot": 0,
        "tle_line1": "1 66443U 25259X   25344.50003471 -.02041493  00000+0 -49226-1 0  9992",
        "tle_line2": "2 66443  43.0006  60.3932 0001235 267.0994  96.2411 15.43983344  5810"
      },
      "geometry": {
        "type": "Point",
        "coordinates": [
          124.27413354319211,
          40.200478210822766
        ]
      }
    },
    {
      "type": "Feature",
      "properties": {
        "norad_id": 66444,
        "name": "STARLINK-35360",
        "group": "last-30-days",
        "lat": 41.97930267898546,
        "lon": 164.2050060209824,
        "alt_km": 413.0292221515583,
        "timestamp": "2025-12-10T16:57:10.414897+00:00",
        "meta_object_name": "STARLINK-35360",
        "meta_object_id": "2025-259Y",
        "meta_epoch": "2025-12-10T11:52:55.102944",
        "meta_mean_motion": 15.51073811,
        "meta_eccentricity": 0.0011482,
        "meta_inclination": 43.0003,
        "meta_ra_of_asc_node": 60.358,
        "meta_arg_of_pericenter": 244.0762,
        "meta_mean_anomaly": 115.8915,
        "meta_ephemeris_type": 0,
        "meta_classification_type": "U",
        "meta_norad_cat_id": 66444,
        "meta_element_set_no": 999,
        "meta_rev_at_epoch": 582,
        "meta_bstar": 0.0028942,
        "meta_mean_motion_dot": 0.00176816,
        "meta_mean_motion_ddot": 0,
        "tle_line1": "1 66444U 25259Y   25344.49508221  .00176816  00000+0  28942-2 0  9991",
        "tle_line2": "2 66444  43.0003  60.3580 0011482 244.0762 115.8915 15.51073811  5826"
      },
      "geometry": {
        "type": "Point",
        "coordinates": [
          164.2050060209824,
          41.97930267898546
        ]
      }
    },
    {
      "type": "Feature",
      "properties": {
        "norad_id": 66445,
        "name": "STARLINK-34698",
        "group": "last-30-days",
        "lat": 42.24450971483938,
        "lon": 136.2264392712385,
        "alt_km": 427.36174521956764,
        "timestamp": "2025-12-10T16:57:10.414907+00:00",
        "meta_object_name": "STARLINK-34698",
        "meta_object_id": "2025-259Z",
        "meta_epoch": "2025-12-10T12:00:02.998944",
        "meta_mean_motion": 15.45324236,
        "meta_eccentricity": 0.000135,
        "meta_inclination": 43.0002,
        "meta_ra_of_asc_node": 60.3722,
        "meta_arg_of_pericenter": 274.2003,
        "meta_mean_anomaly": 97.3606,
        "meta_ephemeris_type": 0,
        "meta_classification_type": "U",
        "meta_norad_cat_id": 66445,
        "meta_element_set_no": 999,
        "meta_rev_at_epoch": 581,
        "meta_bstar": -0.047512,
        "meta_mean_motion_dot": -0.02061162,
        "meta_mean_motion_ddot": 0,
        "tle_line1": "1 66445U 25259Z   25344.50003471 -.02061162  00000+0 -47512-1 0  9995",
        "tle_line2": "2 66445  43.0002  60.3722 0001350 274.2003  97.3606 15.45324236  5813"
      },
      "geometry": {
        "type": "Point",
        "coordinates": [
          136.2264392712385,
          42.24450971483938
        ]
      }
    },
    {
      "type": "Feature",
      "properties": {
        "norad_id": 66446,
        "name": "STARLINK-34986",
        "group": "last-30-days",
        "lat": 42.61171651071455,
        "lon": 158.2923810914287,
        "alt_km": 410.2123582481081,
        "timestamp": "2025-12-10T16:57:10.414918+00:00",
        "meta_object_name": "STARLINK-34986",
        "meta_object_id": "2025-259AA",
        "meta_epoch": "2025-12-10T11:53:56.096160",
        "meta_mean_motion": 15.5041251,
        "meta_eccentricity": 0.0010743,
        "meta_inclination": 42.9988,
        "meta_ra_of_asc_node": 60.3635,
        "meta_arg_of_pericenter": 198.1477,
        "meta_mean_anomaly": 161.9001,
        "meta_ephemeris_type": 0,
        "meta_classification_type": "U",
        "meta_norad_cat_id": 66446,
        "meta_element_set_no": 999,
        "meta_rev_at_epoch": 582,
        "meta_bstar": 0.0021857,
        "meta_mean_motion_dot": 0.00129517,
        "meta_mean_motion_ddot": 0,
        "tle_line1": "1 66446U 25259AA  25344.49578815  .00129517  00000+0  21857-2 0  9993",
        "tle_line2": "2 66446  42.9988  60.3635 0010743 198.1477 161.9001 15.50412510  5820"
      },
      "geometry": {
        "type": "Point",
        "coordinates": [
          158.2923810914287,
          42.61171651071455
        ]
      }
    }
  ]
}